     2              NAVIGATION DATA                         RINEX VERSION / TYPE
CCRINEXN V1.6.0 UX  CDDIS               31-DEC-24 23:53     PGM / RUN BY / DATE 
IGS BROADCAST EPHEMERIS FILE                                COMMENT             
    0.2887D-07  0.2980D-07 -0.1192D-06  0.0000D+00          ION ALPHA           
    0.1556D+06 -0.2130D+06 -0.6554D+05  0.5243D+06          ION BETA            
    0.372529029846D-08 0.106581410364D-13   405504     2347 DELTA-UTC: A0,A1,T,W
    18                                                      LEAP SECONDS        
                                                            END OF HEADER       
22 24 12 31  8  0  0.0-0.896668061614D-04-0.227373675443D-11 0.000000000000D+00
    0.370000000000D+02-0.559375000000D+01 0.460947771753D-08 0.126435344199D+01
   -0.458210706711D-06 0.135157620534D-01 0.792182981968D-05 0.515366765594D+04
    0.201600000000D+06 0.262632966042D-06 0.241709382269D+01-0.303611159325D-06
    0.959693361321D+00 0.224187500000D+03-0.107460026898D+01-0.784996983990D-08
   -0.576452582993D-09 0.100000000000D+01 0.234700000000D+04 0.000000000000D+00
    0.200000000000D+01 0.630000000000D+02-0.111758708954D-07 0.370000000000D+02
    0.198246000000D+06 0.400000000000D+01 0.000000000000D+00 0.000000000000D+00
23 24 12 31  8  0  0.0 0.394439324737D-03 0.761701812735D-11 0.000000000000D+00
    0.131000000000D+03-0.120250000000D+03 0.407302680077D-08-0.237045196106D+01
   -0.624917447567D-05 0.498925859574D-02 0.301562249660D-05 0.515363471222D+04
    0.201600000000D+06-0.204890966415D-07-0.840323990296D+00-0.160187482834D-06
    0.982370284145D+00 0.333343750000D+03-0.286777618326D+01-0.799640451092D-08
   -0.192508018732D-09 0.100000000000D+01 0.234700000000D+04 0.000000000000D+00
    0.200000000000D+01 0.000000000000D+00-0.838190317154D-08 0.899000000000D+03
    0.194418000000D+06 0.400000000000D+01 0.000000000000D+00 0.000000000000D+00
24 24 12 31  8  0  0.0-0.468696001917D-03 0.352429196937D-11 0.000000000000D+00
    0.450000000000D+02 0.175937500000D+02 0.541308261948D-08-0.110026490793D+01
    0.109151005745D-05 0.164170905482D-01 0.637210905552D-05 0.515368314552D+04
    0.201600000000D+06 0.188127160072D-06 0.117869819868D+01 0.346451997757D-06
    0.933777378410D+00 0.241281250000D+03 0.104293363702D+01-0.838534928346D-08
    0.381801617856D-09 0.100000000000D+01 0.234700000000D+04 0.000000000000D+00
    0.200000000000D+01 0.000000000000D+00 0.232830643654D-08 0.450000000000D+02
    0.199810000000D+06 0.400000000000D+01 0.000000000000D+00 0.000000000000D+00
25 24 12 31  8  0  0.0 0.497425906360D-03-0.568434188608D-12 0.000000000000D+00
    0.760000000000D+02-0.208750000000D+02 0.480770026001D-08-0.289319563129D+01
   -0.102259218693D-05 0.122945436742D-01 0.735558569431D-05 0.515368260002D+04
    0.201600000000D+06 0.104308128357D-06 0.230718860707D+01-0.987201929092D-07
    0.948953649603D+00 0.229406250000D+03 0.110584468669D+01-0.783175479545D-08
   -0.533236497155D-09 0.100000000000D+01 0.234700000000D+04 0.000000000000D+00
    0.200000000000D+01 0.000000000000D+00 0.558793544769D-08 0.760000000000D+02
    0.194418000000D+06 0.400000000000D+01 0.000000000000D+00 0.000000000000D+00
26 24 12 31  8  0  0.0-0.294581986964D-04-0.147792889038D-10 0.000000000000D+00
    0.430000000000D+02-0.164375000000D+02 0.531557855804D-08 0.260476208143D+01
   -0.957399606705D-06 0.979074602947D-02 0.691786408424D-05 0.515374831581D+04
    0.201600000000D+06-0.763684511185D-07 0.224064707018D+01-0.894069671631D-07
    0.929656743409D+00 0.230968750000D+03 0.601976233584D+00-0.817212611614D-08
   -0.563952062296D-09 0.100000000000D+01 0.234700000000D+04 0.000000000000D+00
    0.200000000000D+01 0.000000000000D+00 0.651925802231D-08 0.430000000000D+02
    0.194418000000D+06 0.400000000000D+01 0.000000000000D+00 0.000000000000D+00
27 24 12 31  8  0  0.0-0.336351804435D-04 0.454747350886D-12 0.000000000000D+00
    0.210000000000D+02 0.117718750000D+03 0.417695970142D-08 0.865044426813D+00
    0.616908073425D-05 0.131058966508D-01 0.999122858047D-05 0.515369242096D+04
    0.201600000000D+06-0.139698386192D-06-0.291918138077D+01 0.949949026108D-07
    0.959327277775D+00 0.187593750000D+03 0.804837082364D+00-0.789497171440D-08
   -0.273582824394D-09 0.100000000000D+01 0.234700000000D+04 0.000000000000D+00
    0.200000000000D+01 0.000000000000D+00 0.186264514923D-08 0.210000000000D+02
    0.197016000000D+06 0.400000000000D+01 0.000000000000D+00 0.000000000000D+00
28 24 12 31  8  0  0.0-0.523034017533D-03-0.101181285572D-10 0.000000000000D+00
    0.171000000000D+03 0.174062500000D+02 0.482412951579D-08 0.306996122094D+01
    0.923871994019D-06 0.451150466688D-03 0.623427331448D-05 0.515377918816D+04
    0.201600000000D+06 0.111758708954D-07 0.124902372678D+01 0.186264514923D-07
    0.961009000122D+00 0.260656250000D+03 0.142283000286D+01-0.800783355841D-08
    0.365729519817D-09 0.100000000000D+01 0.234700000000D+04 0.000000000000D+00
    0.200000000000D+01 0.000000000000D+00-0.931322574615D-08 0.683000000000D+03
    0.194418000000D+06 0.400000000000D+01 0.000000000000D+00 0.000000000000D+00
29 24 12 31  8  0  0.0-0.551313161850D-03 0.329691829393D-11 0.000000000000D+00
    0.240000000000D+02 0.117937500000D+03 0.393587823084D-08 0.715553086847D+00
    0.619515776634D-05 0.288358831313D-02 0.100918114185D-04 0.515373120117D+04
    0.201600000000D+06 0.800937414169D-07-0.283388808094D+01-0.223517417908D-07
    0.968559139347D+00 0.188062500000D+03 0.264526222236D+01-0.769496338325D-08
   -0.278583032673D-10 0.100000000000D+01 0.234700000000D+04 0.000000000000D+00
    0.200000000000D+01 0.000000000000D+00-0.977888703346D-08 0.240000000000D+02
    0.194418000000D+06 0.400000000000D+01 0.000000000000D+00 0.000000000000D+00
30 24 12 31  8  0  0.0-0.249599572271D-03 0.829913915368D-11 0.000000000000D+00
    0.470000000000D+02 0.101875000000D+02 0.532807907874D-08-0.215613226221D+01
    0.406056642532D-06 0.723181711510D-02 0.599771738052D-05 0.515374583435D+04
    0.201600000000D+06 0.521540641785D-07 0.127695691280D+01-0.745058059692D-07
    0.935110054356D+00 0.248906250000D+03-0.245556174073D+01-0.812676708390D-08
    0.439304013061D-09 0.100000000000D+01 0.234700000000D+04 0.000000000000D+00
    0.200000000000D+01 0.000000000000D+00 0.372529029846D-08 0.470000000000D+02
    0.194420000000D+06 0.400000000000D+01 0.000000000000D+00 0.000000000000D+00
31 24 12 31  8  0  0.0-0.218895729631D-03 0.795807864051D-12 0.000000000000D+00
    0.520000000000D+02 0.136250000000D+02 0.501270879944D-08-0.303282040951D+01
    0.625848770142D-06 0.107075497508D-01 0.568293035030D-05 0.515359665871D+04
    0.201600000000D+06 0.745058059692D-08 0.130204565358D+01-0.180676579475D-06
    0.953834756235D+00 0.265656250000D+03 0.791146821412D+00-0.797211778499D-08
    0.320727645308D-09 0.100000000000D+01 0.234700000000D+04 0.000000000000D+00
    0.200000000000D+01 0.000000000000D+00-0.135041800000D-07 0.520000000000D+02
    0.194460000000D+06 0.400000000000D+01 0.000000000000D+00 0.000000000000D+00
32 24 12 31  8  0  0.0-0.550024211407D-03 0.648014975013D-11 0.000000000000D+00
    0.440000000000D+02-0.815000000000D+02 0.417767401689D-08 0.145311516470D+01
   -0.425428152084D-05 0.825019751210D-02 0.114347785711D-04 0.515377766991D+04
    0.201600000000D+06-0.210478901863D-06 0.222529491235D+00-0.372529029846D-07
    0.964057692141D+00 0.164750000000D+03-0.211462033495D+01-0.775103714752D-08
    0.290012080167D-09 0.100000000000D+01 0.234700000000D+04 0.000000000000D+00
    0.200000000000D+01 0.000000000000D+00 0.931322574616D-09 0.440000000000D+02
    0.200796000000D+06 0.400000000000D+01 0.000000000000D+00 0.000000000000D+00
 3 24 12 31  9 59 44.0 0.636504963040D-03 0.795807864051D-11 0.000000000000D+00
    0.177000000000D+03-0.126718750000D+03 0.406552648835D-08-0.147908703839D+01
   -0.644288957119D-05 0.566422927659D-02 0.337138772011D-05 0.515360362053D+04
    0.208784000000D+06 0.745058059692D-07-0.807809486130D+00 0.745058059692D-07
    0.987656540088D+00 0.328500000000D+03 0.114654947523D+01-0.795533137148D-08
   -0.178578867098D-09 0.100000000000D+01 0.234700000000D+04 0.000000000000D+00
    0.200000000000D+01 0.000000000000D+00 0.139698386192D-08 0.177000000000D+03
    0.207276000000D+06 0.400000000000D+01 0.000000000000D+00 0.000000000000D+00
 5 24 12 31  9 59 44.0-0.197632703930D-03-0.113686837722D-11 0.000000000000D+00
    0.370000000000D+02-0.122656250000D+03 0.433518057767D-08 0.216235334475D+01
   -0.640191137791D-05 0.560262601357D-02 0.171177089214D-05 0.515372971725D+04
    0.208784000000D+06 0.353902578354D-07-0.861989678313D+00-0.651925802231D-07
    0.974479567351D+00 0.356125000000D+03 0.133023886158D+01-0.811998108695D-08
   -0.202508435289D-09 0.100000000000D+01 0.234700000000D+04 0.000000000000D+00
    0.200000000000D+01 0.000000000000D+00-0.107102096081D-07 0.370000000000D+02
    0.208620000000D+06 0.000000000000D+00 0.000000000000D+00 0.000000000000D+00
 8 24 12 31  9 59 44.0 0.450848136097D-03 0.829913915368D-11 0.000000000000D+00
    0.500000000000D+01 0.108031250000D+03 0.429517891144D-08 0.182749909867D+01
    0.567361712456D-05 0.102599675302D-01 0.105742365122D-04 0.515373961449D+04
    0.208784000000D+06-0.139698386192D-06-0.294756278002D+01 0.819563865662D-07
    0.950270246616D+00 0.172000000000D+03 0.395937436658D+00-0.783425489959D-08
   -0.284654714154D-09 0.100000000000D+01 0.234700000000D+04 0.000000000000D+00
    0.200000000000D+01 0.000000000000D+00 0.465661287308D-08 0.500000000000D+01
    0.208128000000D+06 0.400000000000D+01 0.000000000000D+00 0.000000000000D+00
